start=new Date('2022-03-12T00:00:00.000Z').valueOf();
sats=[{"NORAD_CAT_ID":"51754","TIME_SYSTEM":"UTC","ARG_OF_PERICENTER":"60.3162","COUNTRY_CODE":"US","EPHEMERIS_TYPE":"0","EPOCH":"2022-03-11T22:00:00.999936","DECAY_DATE":null,"REV_AT_EPOCH":"415","MEAN_MOTION_DDOT":"0.0000000000000","RCS_SIZE":"LARGE","MEAN_ELEMENT_THEORY":"SGP4","OBJECT_TYPE":"PAYLOAD","ECCENTRICITY":"0.00014780","CLASSIFICATION_TYPE":"U","ELEMENT_SET_NO":"999","APOAPSIS":"352.101","CENTER_NAME":"EARTH","GP_ID":"198496505","PERIOD":"91.561","TLE_LINE2":"2 51754  53.2177  48.8671 0001478  60.3162 230.9547 15.72727813  4154","BSTAR":"0.00430920000000","OBJECT_NAME":"STARLINK-3457","FILE":"3355351","MEAN_ANOMALY":"230.9547","OBJECT_ID":"2022-016AS","INCLINATION":"53.2177","RA_OF_ASC_NODE":"48.8671","REF_FRAME":"TEME","SITE":"AFETR","MEAN_MOTION_DOT":"0.00639588","LAUNCH_DATE":"2022-02-21","PERIAPSIS":"350.112","SEMIMAJOR_AXIS":"6729.242","MEAN_MOTION":"15.72727813","TLE_LINE1":"1 51754U 22016AS  22070.91667824  .00639588  00000-0  43092-2 0  9996"},{"SEMIMAJOR_AXIS":"6729.236","PERIAPSIS":"350.173","LAUNCH_DATE":"2022-02-21","MEAN_MOTION_DOT":"0.00702540","MEAN_MOTION":"15.72729997","TLE_LINE1":"1 51755U 22016AT  22070.91667824  .00702540  00000-0  46963-2 0  9996","OBJECT_ID":"2022-016AT","MEAN_ANOMALY":"212.4075","FILE":"3355351","OBJECT_NAME":"STARLINK-3460","PERIOD":"91.561","TLE_LINE2":"2 51755  53.2176  48.8679 0001379  78.1888 212.4075 15.72729997  4150","BSTAR":"0.00469630000000","GP_ID":"198496503","CENTER_NAME":"EARTH","APOAPSIS":"352.028","SITE":"AFETR","REF_FRAME":"TEME","RA_OF_ASC_NODE":"48.8679","INCLINATION":"53.2176","MEAN_ELEMENT_THEORY":"SGP4","RCS_SIZE":"LARGE","MEAN_MOTION_DDOT":"0.0000000000000","REV_AT_EPOCH":"415","ELEMENT_SET_NO":"999","CLASSIFICATION_TYPE":"U","ECCENTRICITY":"0.00013790","OBJECT_TYPE":"PAYLOAD","COUNTRY_CODE":"US","TIME_SYSTEM":"UTC","ARG_OF_PERICENTER":"78.1888","NORAD_CAT_ID":"51755","DECAY_DATE":null,"EPOCH":"2022-03-11T22:00:00.999936","EPHEMERIS_TYPE":"0"},{"ELEMENT_SET_NO":"999","CLASSIFICATION_TYPE":"U","ECCENTRICITY":"0.00016390","OBJECT_TYPE":"PAYLOAD","MEAN_ELEMENT_THEORY":"SGP4","RCS_SIZE":"LARGE","MEAN_MOTION_DDOT":"0.0000000000000","REV_AT_EPOCH":"410","DECAY_DATE":null,"EPOCH":"2022-03-11T22:00:00.999936","EPHEMERIS_TYPE":"0","TIME_SYSTEM":"UTC","ARG_OF_PERICENTER":"62.7969","COUNTRY_CODE":"US","NORAD_CAT_ID":"51756","TLE_LINE1":"1 51756U 22016AU  22070.91667824  .00646449  00000-0  43528-2 0  9996","MEAN_MOTION":"15.72722581","SEMIMAJOR_AXIS":"6729.257","PERIAPSIS":"350.019","MEAN_MOTION_DOT":"0.00646449","LAUNCH_DATE":"2022-02-21","SITE":"AFETR","INCLINATION":"53.2178","REF_FRAME":"TEME","RA_OF_ASC_NODE":"48.8662","OBJECT_ID":"2022-016AU","OBJECT_NAME":"STARLINK-3513","FILE":"3355351","MEAN_ANOMALY":"229.1161","GP_ID":"198496511","CENTER_NAME":"EARTH","BSTAR":"0.00435280000000","TLE_LINE2":"2 51756  53.2178  48.8662 0001639  62.7969 229.1161 15.72722581  4101","PERIOD":"91.561","APOAPSIS":"352.225"},{"TLE_LINE1":"1 51757U 22016AV  22070.91667824 -.00033785  00000-0 -23656-3 0  9993","MEAN_MOTION":"15.73270100","MEAN_MOTION_DOT":"-0.00033785","LAUNCH_DATE":"2022-02-21","SEMIMAJOR_AXIS":"6727.695","PERIAPSIS":"348.786","INCLINATION":"53.2188","RA_OF_ASC_NODE":"48.8735","REF_FRAME":"TEME","SITE":"AFETR","GP_ID":"198496528","CENTER_NAME":"EARTH","TLE_LINE2":"2 51757  53.2188  48.8735 0001151  69.9091 222.5771 15.73270100  4153","BSTAR":"-0.00023656000000","PERIOD":"91.529","APOAPSIS":"350.335","OBJECT_ID":"2022-016AV","FILE":"3355337","OBJECT_NAME":"STARLINK-3459","MEAN_ANOMALY":"222.5771","ECCENTRICITY":"0.00011510","OBJECT_TYPE":"PAYLOAD","ELEMENT_SET_NO":"999","CLASSIFICATION_TYPE":"U","MEAN_MOTION_DDOT":"0.0000000000000","REV_AT_EPOCH":"415","MEAN_ELEMENT_THEORY":"SGP4","RCS_SIZE":"LARGE","EPOCH":"2022-03-11T22:00:00.999936","EPHEMERIS_TYPE":"0","DECAY_DATE":null,"ARG_OF_PERICENTER":"69.9091","TIME_SYSTEM":"UTC","COUNTRY_CODE":"US","NORAD_CAT_ID":"51757"},{"OBJECT_TYPE":"PAYLOAD","ECCENTRICITY":"0.00012340","CLASSIFICATION_TYPE":"U","ELEMENT_SET_NO":"999","REV_AT_EPOCH":"417","MEAN_MOTION_DDOT":"0.0000000000000","RCS_SIZE":"LARGE","MEAN_ELEMENT_THEORY":"SGP4","EPHEMERIS_TYPE":"0","EPOCH":"2022-03-11T22:00:00.999936","DECAY_DATE":null,"NORAD_CAT_ID":"51758","COUNTRY_CODE":"US","TIME_SYSTEM":"UTC","ARG_OF_PERICENTER":"53.6375","MEAN_MOTION":"15.73230501","TLE_LINE1":"1 51758U 22016AW  22070.91667824 -.00016638  00000-0 -11421-3 0  9999","LAUNCH_DATE":"2022-02-21","MEAN_MOTION_DOT":"-0.00016638","SEMIMAJOR_AXIS":"6727.808","PERIAPSIS":"348.843","REF_FRAME":"TEME","RA_OF_ASC_NODE":"48.8731","INCLINATION":"53.2193","SITE":"AFETR","APOAPSIS":"350.503","TLE_LINE2":"2 51758  53.2193  48.8731 0001234  53.6375 239.4459 15.73230501  4176","PERIOD":"91.531","BSTAR":"-0.00011421000000","GP_ID":"198496510","CENTER_NAME":"EARTH","MEAN_ANOMALY":"239.4459","FILE":"3355351","OBJECT_NAME":"STARLINK-3458","OBJECT_ID":"2022-016AW"},{"ECCENTRICITY":"0.00013040","OBJECT_TYPE":"PAYLOAD","ELEMENT_SET_NO":"999","CLASSIFICATION_TYPE":"U","MEAN_MOTION_DDOT":"0.0000000000000","REV_AT_EPOCH":"357","RCS_SIZE":"LARGE","MEAN_ELEMENT_THEORY":"SGP4","EPOCH":"2022-03-11T22:00:00.999936","EPHEMERIS_TYPE":"0","DECAY_DATE":null,"COUNTRY_CODE":"US","TIME_SYSTEM":"UTC","ARG_OF_PERICENTER":"66.4796","NORAD_CAT_ID":"51759","MEAN_MOTION":"15.73234481","TLE_LINE1":"1 51759U 22016AX  22070.91667824  .00022361  00000-0  16308-3 0  9997","LAUNCH_DATE":"2022-02-21","MEAN_MOTION_DOT":"0.00022361","PERIAPSIS":"348.785","SEMIMAJOR_AXIS":"6727.797","REF_FRAME":"TEME","RA_OF_ASC_NODE":"48.8706","INCLINATION":"53.2188","SITE":"AFETR","PERIOD":"91.531","TLE_LINE2":"2 51759  53.2188  48.8706 0001304  66.4796 227.3010 15.73234481  3573","BSTAR":"0.00016308000000","GP_ID":"198522543","CENTER_NAME":"EARTH","APOAPSIS":"350.539","OBJECT_ID":"2022-016AX","MEAN_ANOMALY":"227.3010","OBJECT_NAME":"STARLINK-3456","FILE":"3355378"},{"REF_FRAME":"TEME","RA_OF_ASC_NODE":"72.9666","INCLINATION":"53.2179","SITE":"AFWTR","TLE_LINE2":"2 51768  53.2179  72.9666 0001430  36.6900 177.7939 15.72689910  3479","BSTAR":"0.00530650000000","PERIOD":"91.563","GP_ID":"198497344","CENTER_NAME":"EARTH","APOAPSIS":"352.177","OBJECT_ID":"2022-017A","MEAN_ANOMALY":"177.7939","FILE":"3355354","OBJECT_NAME":"STARLINK-3622","MEAN_MOTION":"15.72689910","TLE_LINE1":"1 51768U 22017A   22070.91667824  .00802237  00000-0  53065-2 0  9996","LAUNCH_DATE":"2022-02-25","MEAN_MOTION_DOT":"0.00802237","SEMIMAJOR_AXIS":"6729.350","PERIAPSIS":"350.253","EPOCH":"2022-03-11T22:00:00.999936","EPHEMERIS_TYPE":"0","DECAY_DATE":null,"COUNTRY_CODE":"US","ARG_OF_PERICENTER":"36.6900","TIME_SYSTEM":"UTC","NORAD_CAT_ID":"51768","ECCENTRICITY":"0.00014300","OBJECT_TYPE":"PAYLOAD","ELEMENT_SET_NO":"999","CLASSIFICATION_TYPE":"U","MEAN_MOTION_DDOT":"0.0000000000000","REV_AT_EPOCH":"347","MEAN_ELEMENT_THEORY":"SGP4","RCS_SIZE":"LARGE"},{"MEAN_ANOMALY":"160.6091","FILE":"3355354","OBJECT_NAME":"STARLINK-3621","OBJECT_ID":"2022-017B","APOAPSIS":"350.615","TLE_LINE2":"2 51769  53.2199  72.9703 0001384  55.1418 160.6091 15.73226800  3478","BSTAR":"0.00003247000000","PERIOD":"91.532","GP_ID":"198497345","CENTER_NAME":"EARTH","SITE":"AFWTR","REF_FRAME":"TEME","RA_OF_ASC_NODE":"72.9703","INCLINATION":"53.2199","PERIAPSIS":"348.753","SEMIMAJOR_AXIS":"6727.819","LAUNCH_DATE":"2022-02-25","MEAN_MOTION_DOT":"0.00003944","MEAN_MOTION":"15.73226800","TLE_LINE1":"1 51769U 22017B   22070.91667824  .00003944  00000-0  32470-4 0  9994","NORAD_CAT_ID":"51769","COUNTRY_CODE":"US","TIME_SYSTEM":"UTC","ARG_OF_PERICENTER":"55.1418","DECAY_DATE":null,"EPHEMERIS_TYPE":"0","EPOCH":"2022-03-11T22:00:00.999936","MEAN_ELEMENT_THEORY":"SGP4","RCS_SIZE":"LARGE","REV_AT_EPOCH":"347","MEAN_MOTION_DDOT":"0.0000000000000","CLASSIFICATION_TYPE":"U","ELEMENT_SET_NO":"999","OBJECT_TYPE":"PAYLOAD","ECCENTRICITY":"0.00013840"},{"INCLINATION":"53.2181","REF_FRAME":"TEME","RA_OF_ASC_NODE":"72.9725","SITE":"AFWTR","GP_ID":"198497265","CENTER_NAME":"EARTH","BSTAR":"0.00002959400000","TLE_LINE2":"2 51770  53.2181  72.9725 0001031  51.0433 164.0772 15.73233513  3479","PERIOD":"91.531","APOAPSIS":"350.358","OBJECT_ID":"2022-017C","OBJECT_NAME":"STARLINK-3612","FILE":"3355356","MEAN_ANOMALY":"164.0772","MEAN_MOTION":"15.73233513","TLE_LINE1":"1 51770U 22017C   22070.91667824  .00003541  00000-0  29594-4 0  9992","MEAN_MOTION_DOT":"0.00003541","LAUNCH_DATE":"2022-02-25","SEMIMAJOR_AXIS":"6727.800","PERIAPSIS":"348.971","EPOCH":"2022-03-11T22:00:00.999936","EPHEMERIS_TYPE":"0","DECAY_DATE":null,"TIME_SYSTEM":"UTC","ARG_OF_PERICENTER":"51.0433","COUNTRY_CODE":"US","NORAD_CAT_ID":"51770","ECCENTRICITY":"0.00010310","OBJECT_TYPE":"PAYLOAD","ELEMENT_SET_NO":"999","CLASSIFICATION_TYPE":"U","MEAN_MOTION_DDOT":"0.0000000000000","REV_AT_EPOCH":"347","MEAN_ELEMENT_THEORY":"SGP4","RCS_SIZE":"LARGE"},{"ECCENTRICITY":"0.00018280","OBJECT_TYPE":"PAYLOAD","ELEMENT_SET_NO":"999","CLASSIFICATION_TYPE":"U","MEAN_MOTION_DDOT":"0.0000000000000","REV_AT_EPOCH":"347","RCS_SIZE":"LARGE","MEAN_ELEMENT_THEORY":"SGP4","EPOCH":"2022-03-11T22:00:00.999936","EPHEMERIS_TYPE":"0","DECAY_DATE":null,"TIME_SYSTEM":"UTC","ARG_OF_PERICENTER":"56.8969","COUNTRY_CODE":"US","NORAD_CAT_ID":"51771","TLE_LINE1":"1 51771U 22017D   22070.91667824 -.00003347  00000-0 -19424-4 0  9990","MEAN_MOTION":"15.73205769","MEAN_MOTION_DOT":"-0.00003347","LAUNCH_DATE":"2022-02-25","PERIAPSIS":"348.514","SEMIMAJOR_AXIS":"6727.879","INCLINATION":"53.2173","REF_FRAME":"TEME","RA_OF_ASC_NODE":"72.9609","SITE":"AFWTR","CENTER_NAME":"EARTH","GP_ID":"198497254","TLE_LINE2":"2 51771  53.2173  72.9609 0001828  56.8969 159.2027 15.73205769  3474","BSTAR":"-0.00001942400000","PERIOD":"91.533","APOAPSIS":"350.974","OBJECT_ID":"2022-017D","FILE":"3355356","OBJECT_NAME":"STARLINK-3614","MEAN_ANOMALY":"159.2027"}];
